{"type": "FeatureCollection", "features": [ {"type": "Feature", "properties": {"norad_id": 38755, "name": "SPOT 6", "group": "resource", "lat": 38.43497074412365, "lon": -123.66635848775051, "alt_km": 694.2931186078868, "timestamp": "2025-12-10T23:33:12.483702+00:00", "meta": {"OBJECT_NAME": "SPOT 6", "OBJECT_ID": "2012-047A", "EPOCH": "2025-12-10T14:40:38.217216", "MEAN_MOTION": 14.58600385, "ECCENTRICITY": 0.00010949, "INCLINATION": 98.1569, "RA_OF_ASC_NODE": 49.4349, "ARG_OF_PERICENTER": 95.9048, "MEAN_ANOMALY": 264.2276, "EPHEMERIS_TYPE": 0, "CLASSIFICATION_TYPE": "U", "NORAD_CAT_ID": 38755, "ELEMENT_SET_NO": 999, "REV_AT_EPOCH": 70556, "BSTAR": 0.00017167333, "MEAN_MOTION_DOT": 7.54e-06, "MEAN_MOTION_DDOT": 0}, "tle": {"line1": "1 38755U 12047A   25344.61155344  .00000754  00000+0  17167-3 0  9999", "line2": "2 38755  98.1569  49.4349 0001094  95.9048 264.2276 14.58600385705562"}}, "geometry": {"type": "Point", "coordinates": [-123.66635848775051, 38.43497074412365]}}, {"type": "Feature", "properties": {"norad_id": 39019, "name": "PLEIADES 1B", "group": "resource", "lat": 39.29730300375899, "lon": 50.900779785603355, "alt_km": 694.1858334244844, "timestamp": "2025-12-10T23:33:12.483711+00:00", "meta": {"OBJECT_NAME": "PLEIADES 1B", "OBJECT_ID": "2012-068A", "EPOCH": "2025-12-10T15:08:22.123968", "MEAN_MOTION": 14.58550062, "ECCENTRICITY": 0.0001235, "INCLINATION": 98.1792, "RA_OF_ASC_NODE": 57.3157, "ARG_OF_PERICENTER": 80.7807, "MEAN_ANOMALY": 279.3532, "EPHEMERIS_TYPE": 0, "CLASSIFICATION_TYPE": "U", "NORAD_CAT_ID": 39019, "ELEMENT_SET_NO": 999, "REV_AT_EPOCH": 69336, "BSTAR": 0.00017857445, "MEAN_MOTION_DOT": 7.85e-06, "MEAN_MOTION_DDOT": 0}, "tle": {"line1": "1 39019U 12068A   25344.63081162  .00000785  00000+0  17857-3 0  9994", "line2": "2 39019  98.1792  57.3157 0001235  80.7807 279.3532 14.58550062693363"}}, "geometry": {"type": "Point", "coordinates": [50.900779785603355, 39.29730300375899]}}, {"type": "Feature", "properties": {"norad_id": 39030, "name": "GOKTURK 2", "group": "resource", "lat": 30.097715866001735, "lon": 11.212574137078187, "alt_km": 642.26153203802, "timestamp": "2025-12-10T23:33:12.483720+00:00", "meta": {"OBJECT_NAME": "GOKTURK 2", "OBJECT_ID": "2012-073A", "EPOCH": "2025-12-10T14:44:20.895072", "MEAN_MOTION": 14.75287003, "ECCENTRICITY": 9.635e-05, "INCLINATION": 97.6892, "RA_OF_ASC_NODE": 186.3721, "ARG_OF_PERICENTER": 103.3815, "MEAN_ANOMALY": 256.7503, "EPHEMERIS_TYPE": 0, "CLASSIFICATION_TYPE": "U", "NORAD_CAT_ID": 39030, "ELEMENT_SET_NO": 999, "REV_AT_EPOCH": 69670, "BSTAR": 0.00016889187, "MEAN_MOTION_DOT": 1.096e-05, "MEAN_MOTION_DDOT": 0}, "tle": {"line1": "1 39030U 12073A   25344.61413073  .00001096  00000+0  16889-3 0  9991", "line2": "2 39030  97.6892 186.3721 0000963 103.3815 256.7503 14.75287003696708"}}, "geometry": {"type": "Point", "coordinates": [11.212574137078187, 30.097715866001735]}}, {"type": "Feature", "properties": {"norad_id": 39084, "name": "LANDSAT 8", "group": "resource", "lat": -38.63293508853713, "lon": -133.54325829605207, "alt_km": 709.4910794112129, "timestamp": "2025-12-10T23:33:12.483729+00:00", "meta": {"OBJECT_NAME": "LANDSAT 8", "OBJECT_ID": "2013-008A", "EPOCH": "2025-12-10T14:18:40.133376", "MEAN_MOTION": 14.57110811, "ECCENTRICITY": 0.00011108, "INCLINATION": 98.2074, "RA_OF_ASC_NODE": 52.7013, "ARG_OF_PERICENTER": 87.6542, "MEAN_ANOMALY": 272.4784, "EPHEMERIS_TYPE": 0, "CLASSIFICATION_TYPE": "U", "NORAD_CAT_ID": 39084, "ELEMENT_SET_NO": 999, "REV_AT_EPOCH": 67043, "BSTAR": 0.00016176495, "MEAN_MOTION_DOT": 6.84e-06, "MEAN_MOTION_DDOT": 0}, "tle": {"line1": "1 39084U 13008A   25344.59629784  .00000684  00000+0  16176-3 0  9995", "line2": "2 39084  98.2074  52.7013 0001110  87.6542 272.4784 14.57110811670432"}}, "geometry": {"type": "Point", "coordinates": [-133.54325829605207, -38.63293508853713]}}, {"type": "Feature", "properties": {"norad_id": 39086, "name": "SARAL", "group": "resource", "lat": -1.525140516268637, "lon": 169.16417754313593, "alt_km": 786.4581365841723, "timestamp": "2025-12-10T23:33:12.483738+00:00", "meta": {"OBJECT_NAME": "SARAL", "OBJECT_ID": "2013-009A", "EPOCH": "2025-12-10T15:10:49.369440", "MEAN_MOTION": 14.32755932, "ECCENTRICITY": 0.0002829, "INCLINATION": 98.5503, "RA_OF_ASC_NODE": 168.5905, "ARG_OF_PERICENTER": 112.6057, "MEAN_ANOMALY": 247.5427, "EPHEMERIS_TYPE": 0, "CLASSIFICATION_TYPE": "U", "NORAD_CAT_ID": 39086, "ELEMENT_SET_NO": 999, "REV_AT_EPOCH": 66860, "BSTAR": 9.5686776e-05, "MEAN_MOTION_DOT": 2.17e-06, "MEAN_MOTION_DDOT": 0}, "tle": {"line1": "1 39086U 13009A   25344.63251585  .00000217  00000+0  95687-4 0  9990", "line2": "2 39086  98.5503 168.5905 0002829 112.6057 247.5427 14.32755932668603"}}, "geometry": {"type": "Point", "coordinates": [169.16417754313593, -1.525140516268637]}}, {"type": "Feature", "properties": {"norad_id": 39150, "name": "GAOFEN-1", "group": "resource", "lat": -39.463201985121195, "lon": -130.91999595434214, "alt_km": 642.7911586685623, "timestamp": "2025-12-10T23:33:12.483748+00:00", "meta": {"OBJECT_NAME": "GAOFEN-1", "OBJECT_ID": "2013-018A", "EPOCH": "2025-12-10T14:25:48.539136", "MEAN_MOTION": 14.76527738, "ECCENTRICITY": 0.00180247, "INCLINATION": 97.9325, "RA_OF_ASC_NODE": 55.2981, "ARG_OF_PERICENTER": 149.4686, "MEAN_ANOMALY": 210.7577, "EPHEMERIS_TYPE": 0, "CLASSIFICATION_TYPE": "U", "NORAD_CAT_ID": 39150, "ELEMENT_SET_NO": 999, "REV_AT_EPOCH": 68041, "BSTAR": 0.00016272292, "MEAN_MOTION_DOT": 1.086e-05, "MEAN_MOTION_DDOT": 0}, "tle": {"line1": "1 39150U 13018A   25344.60125624  .00001086  00000+0  16272-3 0  9990", "line2": "2 39150  97.9325  55.2981 0018024 149.4686 210.7577 14.76527738680416"}}, "geometry": {"type": "Point", "coordinates": [-130.91999595434214, -39.463201985121195]}}, {"type": "Feature", "properties": {"norad_id": 39160, "name": "VNREDSAT 1", "group": "resource", "lat": -4.5718402509833895, "lon": 40.95678892673542, "alt_km": 680.7560396781264, "timestamp": "2025-12-10T23:33:12.483757+00:00", "meta": {"OBJECT_NAME": "VNREDSAT 1", "OBJECT_ID": "2013-021B", "EPOCH": "2025-12-10T15:22:40.735200", "MEAN_MOTION": 14.64917815, "ECCENTRICITY": 0.00013193, "INCLINATION": 97.9371, "RA_OF_ASC_NODE": 39.9889, "ARG_OF_PERICENTER": 76.8661, "MEAN_ANOMALY": 283.269, "EPHEMERIS_TYPE": 0, "CLASSIFICATION_TYPE": "U", "NORAD_CAT_ID": 39160, "ELEMENT_SET_NO": 999, "REV_AT_EPOCH": 67268, "BSTAR": 0.0002017378, "MEAN_MOTION_DOT": 1.033e-05, "MEAN_MOTION_DDOT": 0}, "tle": {"line1": "1 39160U 13021B   25344.64074925  .00001033  00000+0  20174-3 0  9994", "line2": "2 39160  97.9371  39.9889 0001319  76.8661 283.2690 14.64917815672686"}}, "geometry": {"type": "Point", "coordinates": [40.95678892673542, -4.5718402509833895]}}, {"type": "Feature", "properties": {"norad_id": 39227, "name": "ARIRANG-5 (KOMPSAT-5)", "group": "resource", "lat": -3.9022272063532144, "lon": -11.212174563728333, "alt_km": 558.1028536381336, "timestamp": "2025-12-10T23:33:12.483766+00:00", "meta": {"OBJECT_NAME": "ARIRANG-5 (KOMPSAT-5)", "OBJECT_ID": "2013-042A", "EPOCH": "2025-12-10T14:45:29.466432", "MEAN_MOTION": 15.0448903, "ECCENTRICITY": 0.00037881, "INCLINATION": 97.6141, "RA_OF_ASC_NODE": 168.9496, "ARG_OF_PERICENTER": 60.8631, "MEAN_ANOMALY": 299.2974, "EPHEMERIS_TYPE": 0, "CLASSIFICATION_TYPE": "U", "NORAD_CAT_ID": 39227, "ELEMENT_SET_NO": 999, "REV_AT_EPOCH": 67550, "BSTAR": 0.00015345304, "MEAN_MOTION_DOT": 2.087e-05, "MEAN_MOTION_DDOT": 0}, "tle": {"line1": "1 39227U 13042A   25344.61492438  .00002087  00000+0  15345-3 0  9995", "line2": "2 39227  97.6141 168.9496 0003788  60.8631 299.2974 15.04489030675505"}}, "geometry": {"type": "Point", "coordinates": [-11.212174563728333, -3.9022272063532144]}}, {"type": "Feature", "properties": {"norad_id": 39418, "name": "SKYSAT-A", "group": "resource", "lat": 27.847330426493336, "lon": -140.81407103565664, "alt_km": 530.5753031127524, "timestamp": "2025-12-10T23:33:12.483776+00:00", "meta": {"OBJECT_NAME": "SKYSAT-A", "OBJECT_ID": "2013-066C", "EPOCH": "2025-12-10T14:56:18.183552", "MEAN_MOTION": 15.11578975, "ECCENTRICITY": 0.00206586, "INCLINATION": 97.4109, "RA_OF_ASC_NODE": 34.8949, "ARG_OF_PERICENTER": 244.4133, "MEAN_ANOMALY": 115.4962, "EPHEMERIS_TYPE": 0, "CLASSIFICATION_TYPE": "U", "NORAD_CAT_ID": 39418, "ELEMENT_SET_NO": 999, "REV_AT_EPOCH": 65998, "BSTAR": 0.00037028693, "MEAN_MOTION_DOT": 6.253e-05, "MEAN_MOTION_DDOT": 0}, "tle": {"line1": "1 39418U 13066C   25344.62243268  .00006253  00000+0  37029-3 0  9991", "line2": "2 39418  97.4109  34.8949 0020658 244.4133 115.4962 15.11578975659980"}}, "geometry": {"type": "Point", "coordinates": [-140.81407103565664, 27.847330426493336]}}, {"type": "Feature", "properties": {"norad_id": 39419, "name": "DUBAISAT-2", "group": "resource", "lat": -45.00940009135837, "lon": -17.04069298225112, "alt_km": 540.7224629182738, "timestamp": "2025-12-10T23:33:12.483785+00:00", "meta": {"OBJECT_NAME": "DUBAISAT-2", "OBJECT_ID": "2013-066D", "EPOCH": "2025-12-10T14:12:05.014944", "MEAN_MOTION": 15.08324869, "ECCENTRICITY": 0.00108979, "INCLINATION": 97.4449, "RA_OF_ASC_NODE": 335.0654, "ARG_OF_PERICENTER": 328.8322, "MEAN_ANOMALY": 31.2259, "EPHEMERIS_TYPE": 0, "CLASSIFICATION_TYPE": "U", "NORAD_CAT_ID": 39419, "ELEMENT_SET_NO": 999, "REV_AT_EPOCH": 65794, "BSTAR": 0.00056214215, "MEAN_MOTION_DOT": 8.679e-05, "MEAN_MOTION_DDOT": 0}, "tle": {"line1": "1 39419U 13066D   25344.59172471  .00008679  00000+0  56214-3 0  9996", "line2": "2 39419  97.4449 335.0654 0010897 328.8322  31.2259 15.08324869657943"}}, "geometry": {"type": "Point", "coordinates": [-17.04069298225112, -45.00940009135837]}}]}